{
    "links": {
        "self": "http://www.neowsapp.com/rest/v1/neo/3714117?api_key=iIulBulltgU6a56xZRHN4H3l9WmuAYTsLGpBGhQ2"
    },
    "id": "3714117",
    "neo_reference_id": "3714117",
    "name": "(2015 FA36)",
    "designation": "2015 FA36",
    "nasa_jpl_url": "http://ssd.jpl.nasa.gov/sbdb.cgi?sstr=3714117",
    "absolute_magnitude_h": 22.4,
    "estimated_diameter": {
        "kilometers": {
            "estimated_diameter_min": 0.0880146521,
            "estimated_diameter_max": 0.1968067451
        },
        "meters": {
            "estimated_diameter_min": 88.0146520901,
            "estimated_diameter_max": 196.8067450894
        },
        "miles": {
            "estimated_diameter_min": 0.0546897524,
            "estimated_diameter_max": 0.122290004
        },
        "feet": {
            "estimated_diameter_min": 288.7619911632,
            "estimated_diameter_max": 645.6914415591
        }
    },
    "is_potentially_hazardous_asteroid": false,
    "close_approach_data": [
        {
            "close_approach_date": "2015-04-04",
            "close_approach_date_full": "2015-Apr-04 13:48",
            "epoch_date_close_approach": 1428155280000,
            "relative_velocity": {
                "kilometers_per_second": "20.2754680326",
                "kilometers_per_hour": "72991.6849173355",
                "miles_per_hour": "45354.1944421077"
            },
            "miss_distance": {
                "astronomical": "0.2602619385",
                "lunar": "101.2418940765",
                "kilometers": "38934631.641670995",
                "miles": "24192858.264389931"
            },
            "orbiting_body": "Earth"
        },
        {
            "close_approach_date": "2015-09-02",
            "close_approach_date_full": "2015-Sep-02 06:40",
            "epoch_date_close_approach": 1441176000000,
            "relative_velocity": {
                "kilometers_per_second": "16.6001943457",
                "kilometers_per_hour": "59760.6996445312",
                "miles_per_hour": "37132.9747319033"
            },
            "miss_distance": {
                "astronomical": "0.4988925968",
                "lunar": "194.0692201552",
                "kilometers": "74633269.840048816",
                "miles": "46374963.4429770208"
            },
            "orbiting_body": "Earth"
        }
    ],
    "orbital_data": {
        "orbit_id": "3",
        "orbit_determination_date": "2017-04-06 08:34:52",
        "first_observation_date": "2015-03-20",
        "last_observation_date": "2015-03-24",
        "data_arc_in_days": 4,
        "observations_used": 12,
        "orbit_uncertainty": "9",
        "minimum_orbit_intersection": ".25909",
        "jupiter_tisserand_invariant": "3.527",
        "epoch_osculation": "2457102.5",
        "eccentricity": ".5187203761682287",
        "semi_major_axis": "1.964660196926457",
        "inclination": "33.29446240642719",
        "ascending_node_longitude": "359.5992026988525",
        "orbital_period": "1005.841607985136",
        "perihelion_distance": ".9455509205340188",
        "perihelion_argument": "263.5737216316607",
        "aphelion_distance": "2.983769473318894",
        "perihelion_time": "2457177.782273835849",
        "mean_anomaly": "333.0557789956665",
        "mean_motion": ".3579092345574553",
        "equinox": "J2000",
        "orbit_class": {
            "orbit_class_type": "APO",
            "orbit_class_description": "Near-Earth asteroid orbits which cross the Earth’s orbit similar to that of 1862 Apollo",
            "orbit_class_range": "a (semi-major axis) > 1.0 AU; q (perihelion) < 1.017 AU"
        }
    },
    "is_sentry_object": false
}